[{"OBJECT_NAME":"COSMOS 2599 (RODNIK-S 24)","OBJECT_ID":"2025-273C","EPOCH":"2026-03-09T22:25:47.465760","MEAN_MOTION":12.42894149,"ECCENTRICITY":0.00163499,"INCLINATION":82.5002,"RA_OF_ASC_NODE":232.3082,"ARG_OF_PERICENTER":63.1623,"MEAN_ANOMALY":297.1126,"EPHEMERIS_TYPE":0,"CLASSIFICATION_TYPE":"U","NORAD_CAT_ID":66649,"ELEMENT_SET_NO":999,"REV_AT_EPOCH":1296,"BSTAR":0.00027739383,"MEAN_MOTION_DOT":4.8e-7,"MEAN_MOTION_DDOT":0},{"OBJECT_NAME":"DELTA 1 DEB","OBJECT_ID":"1967-114C","EPOCH":"2026-03-09T10:09:44.376192","MEAN_MOTION":12.62287812,"ECCENTRICITY":0.00892657,"INCLINATION":101.1529,"RA_OF_ASC_NODE":45.798,"ARG_OF_PERICENTER":319.4203,"MEAN_ANOMALY":196.2777,"EPHEMERIS_TYPE":0,"CLASSIFICATION_TYPE":"U","NORAD_CAT_ID":3051,"ELEMENT_SET_NO":999,"REV_AT_EPOCH":68667,"BSTAR":0.00017433261,"MEAN_MOTION_DOT":-1.1e-7,"MEAN_MOTION_DDOT":0}]
